[{"OBJECT_NAME":"TRANSPORTER-10 OBJECT AG","OBJECT_ID":"2024-043AG","EPOCH":"2026-03-09T22:12:45.387648","MEAN_MOTION":15.30759727,"ECCENTRICITY":0.00093005,"INCLINATION":97.5471,"RA_OF_ASC_NODE":205.7101,"ARG_OF_PERICENTER":226.5958,"MEAN_ANOMALY":133.4509,"EPHEMERIS_TYPE":0,"CLASSIFICATION_TYPE":"U","NORAD_CAT_ID":59128,"ELEMENT_SET_NO":999,"REV_AT_EPOCH":11192,"BSTAR":0.00032170115,"MEAN_MOTION_DOT":9.498e-5,"MEAN_MOTION_DDOT":0},{"OBJECT_NAME":"STARLINK-35165","OBJECT_ID":"2025-216S","EPOCH":"2026-03-09T22:29:10.116096","MEAN_MOTION":15.30216106,"ECCENTRICITY":0.00019204,"INCLINATION":53.16,"RA_OF_ASC_NODE":331.5839,"ARG_OF_PERICENTER":142.6128,"MEAN_ANOMALY":217.5007,"EPHEMERIS_TYPE":0,"CLASSIFICATION_TYPE":"U","NORAD_CAT_ID":65750,"ELEMENT_SET_NO":999,"REV_AT_EPOCH":2655,"BSTAR":0.0008730771,"MEAN_MOTION_DOT":0.00025601,"MEAN_MOTION_DDOT":0}]
